CUTE-1 (CO-55)          
1 27844U 03031E   24213.94107726  .00000793  00000+0  36897-3 0  9994
2 27844  98.6777 220.3484 0010176  22.3114 337.8506 14.23342383 94156
CUBESAT XI-IV (CO-57)   
1 27848U 03031J   24213.96330666  .00000667  00000+0  31655-3 0  9998
2 27848  98.6807 220.5897 0010359  37.4572 322.7326 14.22772393 93904
CUBESAT XI-V            
1 28895U 05043F   24213.82187070  .00003813  00000+0  67287-3 0  9996
2 28895  98.2068 349.7328 0015024 212.8295 147.1977 14.67998126  1004
CUTE-1.7+APD II (CO-65) 
1 32785U 08021C   24213.86583879  .00008899  00000+0  76948-3 0  9992
2 32785  97.7579 178.8442 0011478 164.4793 195.6783 14.97371216882165
AAUSAT-II               
1 32788U 08021F   24213.91560165  .00036146  00000+0  16807-2 0  9997
2 32788  97.5951 194.3626 0006071  50.6239 309.5532 15.19857956885112
CANX-2                  
1 32790U 08021H   24213.84249648  .00007277  00000+0  65623-3 0  9996
2 32790  97.7687 177.5334 0012149 176.8047 183.3254 14.95792463881965
SEEDS II (CO-66)        
1 32791U 08021J   24213.89825338  .00013645  00000+0  96659-3 0  9997
2 32791  97.6919 184.8556 0007071 138.1368 222.0400 15.04910639883240
SWISSCUBE               
1 35932U 09051B   24213.66668212  .00001974  00000+0  42813-3 0  9997
2 35932  98.4654  97.8608 0007223 170.2225 189.9116 14.59274791789043
BEESAT-1                
1 35933U 09051C   24213.68003330  .00001720  00000+0  37675-3 0  9993
2 35933  98.4583  98.7250 0005302 179.7593 180.3609 14.58981998789119
ITUPSAT1                
1 35935U 09051E   24213.72670829  .00001563  00000+0  35123-3 0  9994
2 35935  98.4680  98.5334 0007360 191.1300 168.9737 14.57924083788754
TISAT 1                 
1 36799U 10035E   24213.61652341  .00010405  00000+0  76707-3 0  9992
2 36799  98.0851 104.9994 0006902  86.9494 273.2520 15.03494997763930
AEROCUBE 4.5A           
1 38767U 12048K   24213.85652957  .00028084  00000+0  14252-2 0  9992
2 38767  64.6580 170.4324 0110810   3.0348 357.1420 15.11564078267210
AEROCUBE 4.5B           
1 38768U 12048L   24213.91339149  .00044054  00000+0  14046-2 0  9991
2 38768  64.6545  92.0177 0086471 349.7811  10.1556 15.28649041268250
STRAND-1                
1 39090U 13009E   24213.51902879  .00000677  00000+0  24681-3 0  9990
2 39090  98.3818  40.5859 0009957 116.9683 243.2521 14.36148826598627
BRITE-AUSTRIA           
1 39091U 13009F   24213.57338820  .00000455  00000+0  17156-3 0  9999
2 39091  98.3863  39.9123 0011347 123.7651 236.4618 14.35858389598645
NEE-01 PEGASO           
1 39151U 13018B   24213.85654514  .00005602  00000+0  64312-3 0  9993
2 39151  98.0399 331.4272 0013727 252.1846 107.7872 14.86196940608609
ESTCUBE 1               
1 39161U 13021C   24213.93139759  .00003939  00000+0  56910-3 0  9992
2 39161  97.8264 279.0353 0010342  87.5760 272.6634 14.76710610603697
POPACS 1                
1 39268U 13055D   24213.42861576  .00040147  00000+0  67353-3 0  9995
2 39268  80.9802 100.3358 0390604 310.2722  46.4938 14.96726938567148
POPACS 2                
1 39269U 13055E   24213.95791756  .00019102  00000+0  43598-3 0  9998
2 39269  81.0014 190.6961 0544971 186.0201 173.4278 14.58343539562128
POPACS 3                
1 39270U 13055F   24213.80024769  .00012267  00000+0  33517-3 0  9992
2 39270  81.0061 243.0557 0621938 332.8516  24.1359 14.38349417539377
ZACUBE-1 (TSHEPISOSAT)  
1 39417U 13066B   24213.92678137  .00009315  00000+0  95145-3 0  9999
2 39417  97.7353 168.9125 0050427  14.8741 345.3947 14.89859964578249
WNISAT-1                
1 39423U 13066H   24213.77778990  .00001697  00000+0  33206-3 0  9992
2 39423  97.6702  44.4921 0168548 228.9787 129.6737 14.55405349566926
TRITON-1                
1 39427U 13066M   24213.91057335  .00006232  00000+0  86971-3 0  9992
2 39427  97.8389 130.4655 0100284 298.6439  60.4713 14.74587759572801
DELFI-N3XT              
1 39428U 13066N   24213.72954058  .00009953  00000+0  12466-2 0  9990
2 39428  97.8353 130.9074 0097719 304.9303  54.2757 14.79075348572677
GOMX-1                  
1 39430U 13066Q   24213.87619406  .00004476  00000+0  73875-3 0  9991
2 39430  97.7272  85.5507 0140874 110.5091 251.1297 14.64459976569402
CUBEBUG-2 (LO-74)       
1 39440U 13066AA  24213.82550697  .00005369  00000+0  62573-3 0  9998
2 39440  97.8133 156.5484 0070796 127.3030 233.4666 14.83824262574951
NEE-02 KRYSAOR          
1 39441U 13066AB  24213.78232842  .00003571  00000+0  45198-3 0  9990
2 39441  97.8225 152.2063 0074770 149.7966 210.7589 14.80454630574533
FUNCUBE-1 (AO-73)       
1 39444U 13066AE  24213.86414710  .00011580  00000+0  10967-2 0  9992
2 39444  97.7205 172.0940 0046900 355.2178   4.8587 14.92932826576779
UWE-3                   
1 39446U 13066AG  24213.81774716  .00007595  00000+0  83271-3 0  9994
2 39446  97.7821 162.6203 0061775  73.5571 287.2422 14.86603731575335
BRITE-CA1 (TORONTO)     
1 40020U 14033L   24213.95995468  .00001771  00000+0  29153-3 0  9992
2 40020  97.8830 349.5246 0081796 309.7786  49.6236 14.69610052541449
DUCHIFAT-1              
1 40021U 14033M   24213.95133818  .00019868  00000+0  12674-2 0  9991
2 40021  98.0920 200.1314 0010163 316.2767  43.7655 15.08700018550876
NANOSATC-BR1            
1 40024U 14033Q   24213.92069383  .00015180  00000+0  10886-2 0  9992
2 40024  98.0661 187.9203 0007320  42.6360 317.5431 15.04431274549974
QB50P1                  
1 40025U 14033R   24213.84094067  .00012055  00000+0  95720-3 0  9990
2 40025  98.0425 176.0824 0015161  27.1201 333.0810 15.00552503549570
QB50P2                  
1 40032U 14033Y   24213.84845255  .00010096  00000+0  83207-3 0  9991
2 40032  98.0081 167.5076 0010395  14.3694 345.7822 14.99218566549363
PERSEUS-M2              
1 40037U 14033AD  24213.86767997  .00003480  00000+0  35936-3 0  9999
2 40037  97.9260 144.8236 0014352  52.7604 307.4920 14.90750795548487
PERSEUS-M1              
1 40039U 14033AF  24213.83228181  .00003875  00000+0  40152-3 0  9999
2 40039  97.9056 140.7155 0014225  52.5066 307.7443 14.90544598548335
POLYITAN-1              
1 40042U 14033AJ  24213.88962674  .00015400  00000+0  11258-2 0  9991
2 40042  98.0717 180.0473 0011933 355.9164   4.1961 15.03670795549559
TIGRISAT                
1 40043U 14033AK  24213.92383993  .00005658  00000+0  74771-3 0  9992
2 40043  97.6993  14.7383 0055595 156.6893 203.6858 14.79275294544071
AEROCUBE 6A             
1 40045U 14033AM  24213.90371301  .00011964  00000+0  14022-2 0  9991
2 40045  97.6724  25.6402 0050743 134.0907 226.4502 14.84203999544421
AEROCUBE 6B             
1 40046U 14033AN  24213.71078843  .00009057  00000+0  10419-2 0  9992
2 40046  97.6688  24.1991 0049430 130.0069 230.5501 14.85090023544455
CANX-4                  
1 40055U 14034C   24213.59751238  .00002073  00000+0  29285-3 0  9998
2 40055  98.3920  50.1957 0014373  52.7744 307.4774 14.78274127543143
CANX-5                  
1 40056U 14034D   24213.80545867  .00002234  00000+0  31487-3 0  9998
2 40056  98.3924  50.4182 0014363  52.5212 307.7302 14.78284431533955
UKUBE-1                 
1 40074U 14037F   24213.80037029  .00009697  00000+0  89917-3 0  9998
2 40074  98.3412 146.4921 0002317 295.9693  64.1286 14.94678592545441
BRITE-PL2 (HEWELIUSZ)   
1 40119U 14049B   24213.83743576  .00004385  00000+0  46885-3 0  9991
2 40119  97.8845 313.3156 0015055 213.3083 146.7188 14.89193629539224
AEROCUBE 5C             
1 40965U 15058B   24213.90726773  .00007061  00000+0  63582-3 0  9996
2 40965  64.7680 224.3113 0192497 294.6788  63.4383 14.83211783263678
AEROCUBE 7              
1 40966U 15058C   24213.93117561  .00009385  00000+0  80922-3 0  9997
2 40966  64.7655 217.5809 0187232 294.3144  63.8513 14.85197272263757
FOX-1A (AO-85)          
1 40967U 15058D   24213.51377705  .00005445  00000+0  50387-3 0  9995
2 40967  64.7760 239.5485 0191650 290.6079  67.4565 14.82602789 11562
SINOD-D 1               
1 40968U 15058E   24213.76135625  .00007389  00000+0  65161-3 0  9991
2 40968  64.7759 231.1217 0186153 289.5332  68.5757 14.84714955 14438
SNAP-3 ALICE            
1 40970U 15058G   24213.92671457  .00026478  00000+0  17583-2 0  9994
2 40970  64.7685 185.1613 0155016 287.4039  71.0177 14.97773657 12488
LMRST-SAT               
1 40971U 15058H   24213.49039710  .00005512  00000+0  50867-3 0  9996
2 40971  64.7750 235.1560 0192827 292.0105  66.0616 14.82542740 11567
SNAP-3 EDDIE            
1 40972U 15058J   24213.25881373  .00025696  00000+0  16876-2 0  9997
2 40972  64.7668 180.5850 0155562 288.5173  69.9093 14.98109573 14486
PROPCUBE 3              
1 40973U 15058K   24213.46107077  .00008242  00000+0  72324-3 0  9992
2 40973  64.7692 222.6502 0189209 293.3573  64.7729 14.84421690 12602
BISONSAT                
1 40974U 15058L   24213.68907292  .00014941  00000+0  11142-2 0  9997
2 40974  64.7660 194.6837 0169623 290.9260  67.3769 14.92247832 12405
SNAP-3 JIMI             
1 40975U 15058M   24213.72143892  .00010499  00000+0  85963-3 0  9998
2 40975  64.7673 209.2196 0180931 292.2485  65.9523 14.87760226 11659
PROPCUBE 1 (FLORA)      
1 40976U 15058N   24213.58638988  .00004920  00000+0  47331-3 0  9997
2 40976  64.7747 250.5292 0190958 293.2185  64.8913 14.81383766 14373
SINOD-D 3               
1 40977U 15058P   24213.51525547  .00006390  00000+0  58665-3 0  9992
2 40977  64.7736 243.6251 0185445 292.4417  65.7143 14.83469662 12605
HORYU-4                 
1 41340U 16012D   24213.87894028  .00018692  00000+0  89499-3 0  9997
2 41340  31.0030  44.0514 0009877  61.6433 298.5203 15.17734853464943
RAVAN                   
1 41849U 16067B   24213.76997452  .00012518  00000+0  66907-3 0  9994
2 41849  98.0663  34.1179 0012028 233.6258 126.3863 15.15187342422731
CELTEE 1                
1 41850U 16067C   24213.92143556  .00008734  00000+0  58359-3 0  9999
2 41850  98.1053  25.7482 0001869  74.8451 285.2982 15.07247549422162
